NORAD_CAT_ID,OBJECT_NAME,OBJECT_TYPE,EPOCH,MEAN_MOTION,ECCENTRICITY,INCLINATION,RA_OF_ASC_NODE,ARG_OF_PERICENTER,MEAN_ANOMALY,BSTAR,MEAN_MOTION_DOT,MEAN_MOTION_DDOT,TLE_LINE0,TLE_LINE1,TLE_LINE2,SEMIMAJOR_AXIS,PERIOD,APOGEE,PERIGEE,DECAYED
52581.0,STARLINK-3915,PAYLOAD,2023-08-10 11:24:37,15.08837968,8.6e-05,53.2174,28.8841,80.1317,279.9773,1.6642e-05,-2.3e-07,0.0,0 STARLINK-3915,1 52581U 22051AX  23222.47542896 -.00000023  00000-0  16642-4 0  9996,2 52581  53.2174  28.8841 0000860  80.1317 279.9773 15.08837968 69419,6917.887,95.438,540.347,539.157,0.0
52581.0,STARLINK-3915,PAYLOAD,2023-08-10 22:32:18,15.08851503,7.68e-05,53.2174,26.8015,69.042,291.0654,0.00036796,5.575e-05,0.0,0 STARLINK-3915,1 52581U 22051AX  23222.93910458  .00005575  00000-0  36796-3 0  9997,2 52581  53.2174  26.8015 0000768  69.0420 291.0654 15.08851503 69489,6917.845,95.437,540.242,539.179,0.0
52581.0,STARLINK-3915,PAYLOAD,2023-08-11 17:36:56,15.08844824,8.41e-05,53.2174,23.2343,87.9617,272.1471,0.00022197,3.247e-05,0.0,0 STARLINK-3915,1 52581U 22051AX  23223.73398802  .00003247  00000-0  22197-3 0  9993,2 52581  53.2174  23.2343 0000841  87.9617 272.1471 15.08844824 69602,6917.866,95.437,540.312,539.149,0.0
52581.0,STARLINK-3915,PAYLOAD,2023-08-12 11:06:11,15.08842453,6.36e-05,53.2174,19.9621,89.139,270.9675,0.00013801,1.91e-05,0.0,0 STARLINK-3915,1 52581U 22051AX  23224.46262787  .00001910  00000-0  13801-3 0  9993,2 52581  53.2174  19.9621 0000636  89.1390 270.9675 15.08842453 69717,6917.873,95.437,540.178,539.298,0.0
52581.0,STARLINK-3915,PAYLOAD,2023-08-13 10:56:58,15.08830389,7.37e-05,53.2174,15.5012,89.2045,270.9032,-8.792e-06,-4.27e-06,0.0,0 STARLINK-3915,1 52581U 22051AX  23225.45622794 -.00000427  00000-0 -87920-5 0  9990,2 52581  53.2174  15.5012 0000737  89.2045 270.9032 15.08830389 69861,6917.91,95.438,540.285,539.265,0.0
52581.0,STARLINK-3915,PAYLOAD,2023-08-14 10:47:45,15.08840839,7.16e-05,53.2163,11.0413,90.2269,269.8805,0.00020849,3.032e-05,0.0,0 STARLINK-3915,1 52581U 22051AX  23226.44983217  .00003032  00000-0  20849-3 0  9998,2 52581  53.2163  11.0413 0000716  90.2269 269.8805 15.08840839 70017,6917.878,95.438,540.238,539.248,0.0
52581.0,STARLINK-3915,PAYLOAD,2023-08-16 08:53:56,15.08839922,0.0001508,53.2175,2.4186,73.9678,286.148,0.00011672,1.57e-05,0.0,0 STARLINK-3915,1 52581U 22051AX  23228.37079677  .00001570  00000-0  11672-3 0  9997,2 52581  53.2175   2.4186 0001508  73.9678 286.1480 15.08839922 70307,6917.881,95.438,540.789,538.702,0.0
52581.0,STARLINK-3915,PAYLOAD,2023-08-18 08:35:30,15.08841274,0.0001155,53.2155,353.4984,70.5046,289.607,0.00013797,1.909e-05,0.0,0 STARLINK-3915,1 52581U 22051AX  23230.35799638  .00001909  00000-0  13797-3 0  9990,2 52581  53.2155 353.4984 0001155  70.5046 289.6070 15.08841274 70609,6917.876,95.437,540.541,538.942,0.0
52581.0,STARLINK-3915,PAYLOAD,2023-08-19 11:37:04,15.08838236,0.0001056,53.2167,348.4416,92.577,267.5343,8.5261e-06,-1.52e-06,0.0,0 STARLINK-3915,1 52581U 22051AX  23231.48407891 -.00000152  00000-0  85261-5 0  9999,2 52581  53.2167 348.4416 0001056  92.5770 267.5343 15.08838236 70774,6917.886,95.438,540.481,539.02,0.0
52581.0,STARLINK-3915,PAYLOAD,2023-08-19 17:58:36,15.08844005,0.0001085,53.2172,347.2524,88.0908,272.0209,5.1231e-05,5.28e-06,0.0,0 STARLINK-3915,1 52581U 22051AX  23231.74903411  .00000528  00000-0  51231-4 0  9992,2 52581  53.2172 347.2524 0001085  88.0908 272.0209 15.08844005 70810,6917.868,95.437,540.484,538.983,0.0
52581.0,STARLINK-3915,PAYLOAD,2023-08-20 11:27:51,15.08837256,0.0001086,53.2169,343.9813,99.7357,260.3758,7.142e-05,8.49e-06,0.0,0 STARLINK-3915,1 52581U 22051AX  23232.47767949  .00000849  00000-0  71420-4 0  9995,2 52581  53.2169 343.9813 0001086  99.7357 260.3758 15.08837256 70929,6917.889,95.438,540.505,539.002,0.0
52581.0,STARLINK-3915,PAYLOAD,2023-08-21 12:54:02,15.08836311,0.0001109,53.2197,339.2283,94.3646,265.7473,4.9425e-05,4.99e-06,0.0,0 STARLINK-3915,1 52581U 22051AX  23233.53752518  .00000499  00000-0  49425-4 0  9990,2 52581  53.2197 339.2283 0001109  94.3646 265.7473 15.08836311 71089,6917.892,95.438,540.524,538.989,0.0
52581.0,STARLINK-3915,PAYLOAD,2023-08-23 12:35:36,15.08842264,0.0001508,53.2181,330.3075,48.7896,311.3226,0.0001047,1.379e-05,0.0,0 STARLINK-3915,1 52581U 22051AX  23235.52472466  .00001379  00000-0  10470-3 0  9997,2 52581  53.2181 330.3075 0001508  48.7896 311.3226 15.08842264 71387,6917.873,95.437,540.782,538.695,0.0
52581.0,STARLINK-3915,PAYLOAD,2023-08-24 14:01:46,15.08846123,0.0001419,53.2175,325.5469,72.3105,287.8042,0.00012329,1.675e-05,0.0,0 STARLINK-3915,1 52581U 22051AX  23236.58456029  .00001675  00000-0  12329-3 0  9995,2 52581  53.2175 325.5469 0001419  72.3105 287.8042 15.08846123 71549,6917.862,95.437,540.708,538.745,0.0
52581.0,STARLINK-3915,PAYLOAD,2023-08-25 12:17:09,15.08846696,0.0001257,53.2171,321.383,80.3418,279.7717,3.4465e-05,2.61e-06,0.0,0 STARLINK-3915,1 52581U 22051AX  23237.51191980  .00000261  00000-0  34465-4 0  9997,2 52581  53.2171 321.3830 0001257  80.3418 279.7717 15.08846696 71619,6917.86,95.437,540.594,538.855,0.0
52581.0,STARLINK-3915,PAYLOAD,2023-08-25 13:52:32,15.08848067,0.0001263,53.2172,321.0855,82.1902,277.9233,4.8053e-05,4.77e-06,0.0,0 STARLINK-3915,1 52581U 22051AX  23237.57815822  .00000477  00000-0  48053-4 0  9998,2 52581  53.2172 321.0855 0001263  82.1902 277.9233 15.08848067 71627,6917.856,95.437,540.594,538.847,0.0
52581.0,STARLINK-3915,PAYLOAD,2023-08-26 10:32:34,15.08836829,0.0001399,53.2174,317.219,101.6221,258.4928,-1.9919e-05,-6.05e-06,0.0,0 STARLINK-3915,1 52581U 22051AX  23238.43928645 -.00000605  00000-0 -19919-4 0  9996,2 52581  53.2174 317.2190 0001399 101.6221 258.4928 15.08836829 71829,6917.89,95.438,540.723,538.787,0.0
52581.0,STARLINK-3915,PAYLOAD,2023-08-26 12:07:57,15.08836884,0.0001391,53.2175,316.9217,100.8357,259.2791,-2.2051e-05,-6.39e-06,0.0,0 STARLINK-3915,1 52581U 22051AX  23238.50552641 -.00000639  00000-0 -22051-4 0  9991,2 52581  53.2175 316.9217 0001391 100.8357 259.2791 15.08836884 71760,6917.89,95.438,540.717,538.793,0.0
52581.0,STARLINK-3915,PAYLOAD,2023-08-26 15:18:43,15.08838993,0.0001381,53.2173,316.3264,102.2954,257.8192,-1.0802e-05,-4.6e-06,0.0,0 STARLINK-3915,1 52581U 22051AX  23238.63800448 -.00000460  00000-0 -10802-4 0  9999,2 52581  53.2173 316.3264 0001381 102.2954 257.8192 15.08838993 71786,6917.883,95.438,540.704,538.793,0.0
52581.0,STARLINK-3915,PAYLOAD,2023-08-27 08:47:58,15.08837786,0.0001373,53.2175,313.0549,100.2013,259.9134,1.2635e-05,-8.7e-07,0.0,0 STARLINK-3915,1 52581U 22051AX  23239.36664608 -.00000087  00000-0  12635-4 0  9996,2 52581  53.2175 313.0549 0001373 100.2013 259.9134 15.08837786 71893,6917.887,95.438,540.702,538.802,0.0
52581.0,STARLINK-3915,PAYLOAD,2023-08-27 13:34:07,15.08839601,0.0001381,53.2175,312.1627,99.7609,260.3539,2.6482e-05,1.34e-06,0.0,0 STARLINK-3915,1 52581U 22051AX  23239.56536460  .00000134  00000-0  26482-4 0  9999,2 52581  53.2175 312.1627 0001381  99.7609 260.3539 15.08839601 71996,6917.882,95.438,540.702,538.791,0.0
52581.0,STARLINK-3915,PAYLOAD,2023-08-28 21:21:50,15.08837623,0.0001205,53.2169,306.2175,104.2639,255.8487,4.0609e-05,3.58e-06,0.0,0 STARLINK-3915,1 52581U 22051AX  23240.89016845  .00000358  00000-0  40609-4 0  9992,2 52581  53.2169 306.2175 0001205 104.2639 255.8487 15.08837623 72120,6917.888,95.438,540.586,538.919,0.0
52581.0,STARLINK-3915,PAYLOAD,2023-08-29 11:40:18,15.0884228,0.0001278,53.217,303.5411,87.4281,272.6857,5.3023e-05,5.56e-06,0.0,0 STARLINK-3915,1 52581U 22051AX  23241.48632731  .00000556  00000-0  53023-4 0  9990,2 52581  53.2170 303.5411 0001278  87.4281 272.6857 15.08842280 72213,6917.873,95.437,540.623,538.854,0.0
52581.0,STARLINK-3915,PAYLOAD,2023-08-30 08:20:20,15.08833953,0.0001416,53.2173,299.6754,90.337,269.7784,9.7857e-06,-1.32e-06,0.0,0 STARLINK-3915,1 52581U 22051AX  23242.34745468 -.00000132  00000-0  97857-5 0  9993,2 52581  53.2173 299.6754 0001416  90.3370 269.7784 15.08833953 72412,6917.899,95.438,540.743,538.784,0.0
52581.0,STARLINK-3915,PAYLOAD,2023-08-30 16:17:15,15.0884323,0.0001408,53.2173,298.1876,78.5107,281.6044,1.4696e-05,-5.4e-07,0.0,0 STARLINK-3915,1 52581U 22051AX  23242.67864920 -.00000054  00000-0  14696-4 0  9996,2 52581  53.2173 298.1876 0001408  78.5107 281.6044 15.08843230 72464,6917.871,95.437,540.71,538.761,0.0
52581.0,STARLINK-3915,PAYLOAD,2023-08-31 03:24:57,15.08837684,0.0001396,53.2169,296.1067,85.072,275.0431,2.8885e-05,1.72e-06,0.0,0 STARLINK-3915,1 52581U 22051AX  23243.14233235  .00000172  00000-0  28885-4 0  9993,2 52581  53.2169 296.1067 0001396  85.0720 275.0431 15.08837684 72530,6917.887,95.438,540.718,538.787,0.0
52581.0,STARLINK-3915,PAYLOAD,2023-09-01 09:37:17,15.08823321,9.72e-05,53.2164,290.457,87.0993,273.011,0.00033478,5.042e-05,0.0,0 STARLINK-3915,1 52581U 22051AX  23244.40089301  .00005042  00000-0  33478-3 0  9990,2 52581  53.2164 290.4570 0000972  87.0993 273.0110 15.08823321 72720,6917.931,95.439,540.469,539.124,0.0
52581.0,STARLINK-3915,PAYLOAD,2023-09-01 12:48:02,15.08844571,0.0001331,53.2165,289.8615,82.5778,277.5366,6.6943e-05,7.78e-06,0.0,0 STARLINK-3915,1 52581U 22051AX  23244.53336610  .00000778  00000-0  66943-4 0  9997,2 52581  53.2165 289.8615 0001331  82.5778 277.5366 15.08844571 72670,6917.866,95.437,540.652,538.811,0.0
52581.0,STARLINK-3915,PAYLOAD,2023-09-01 20:44:58,15.08842688,0.0001436,53.2163,288.3759,83.2963,276.8192,4.195e-05,3.8e-06,0.0,0 STARLINK-3915,1 52581U 22051AX  23244.86456735  .00000380  00000-0  41950-4 0  9994,2 52581  53.2163 288.3759 0001436  83.2963 276.8192 15.08842688 72790,6917.872,95.437,540.731,538.744,0.0
52581.0,STARLINK-3915,PAYLOAD,2023-09-02 03:06:31,15.08822219,0.0001469,53.2159,287.187,79.7665,280.3492,0.00032069,4.817e-05,0.0,0 STARLINK-3915,1 52581U 22051AX  23245.12953380  .00004817  00000-0  32069-3 0  9991,2 52581  53.2159 287.1870 0001469  79.7665 280.3492 15.08822219 72837,6917.935,95.439,540.816,538.783,0.0
